{
  "type": "FeatureCollection",
  "features": [
    {
      "type": "Feature",
      "properties": {
        "norad_id": 34680,
        "name": "COSMOS 2251 DEB",
        "group": "cosmos-2251-debris",
        "lat": -38.869424511273955,
        "lon": 129.74707969595485,
        "alt_km": 696.9159798579103,
        "timestamp": "2025-12-05T19:30:25.961920+00:00",
        "meta_object_name": "COSMOS 2251 DEB",
        "meta_object_id": "1993-036YA",
        "meta_epoch": "2025-12-04T21:14:20.827392",
        "meta_mean_motion": 14.60485882,
        "meta_eccentricity": 0.0007053,
        "meta_inclination": 74.0418,
        "meta_ra_of_asc_node": 144.8522,
        "meta_arg_of_pericenter": 239.7459,
        "meta_mean_anomaly": 243.1564,
        "meta_ephemeris_type": 0,
        "meta_classification_type": "U",
        "meta_norad_cat_id": 34680,
        "meta_element_set_no": 999,
        "meta_rev_at_epoch": 88213,
        "meta_bstar": 0.0023967,
        "meta_mean_motion_dot": 0.00011619,
        "meta_mean_motion_ddot": 0,
        "tle_line1": "1 34680U 93036YA  25338.88496328  .00011619  00000+0  23967-2 0  9997",
        "tle_line2": "2 34680  74.0418 144.8522 0007053 239.7459 243.1564 14.60485882882130"
      },
      "geometry": {
        "type": "Point",
        "coordinates": [
          129.74707969595485,
          -38.869424511273955
        ]
      }
    },
    {
      "type": "Feature",
      "properties": {
        "norad_id": 34681,
        "name": "COSMOS 2251 DEB",
        "group": "cosmos-2251-debris",
        "lat": -12.946522585361048,
        "lon": -59.68124863831477,
        "alt_km": 606.8416172343741,
        "timestamp": "2025-12-05T19:30:25.961931+00:00",
        "meta_object_name": "COSMOS 2251 DEB",
        "meta_object_id": "1993-036YB",
        "meta_epoch": "2025-12-05T00:26:59.961984",
        "meta_mean_motion": 14.82913148,
        "meta_eccentricity": 0.0025711,
        "meta_inclination": 74.0627,
        "meta_ra_of_asc_node": 305.6533,
        "meta_arg_of_pericenter": 3.6401,
        "meta_mean_anomaly": 65.7759,
        "meta_ephemeris_type": 0,
        "meta_classification_type": "U",
        "meta_norad_cat_id": 34681,
        "meta_element_set_no": 999,
        "meta_rev_at_epoch": 89156,
        "meta_bstar": 0.0030425506,
        "meta_mean_motion_dot": 0.00024878,
        "meta_mean_motion_ddot": 0,
        "tle_line1": "1 34681U 93036YB  25339.01874956  .00024878  00000+0  30426-2 0  9990",
        "tle_line2": "2 34681  74.0627 305.6533 0025711   3.6401  65.7759 14.82913148891564"
      },
      "geometry": {
        "type": "Point",
        "coordinates": [
          -59.68124863831477,
          -12.946522585361048
        ]
      }
    },
    {
      "type": "Feature",
      "properties": {
        "norad_id": 34682,
        "name": "COSMOS 2251 DEB",
        "group": "cosmos-2251-debris",
        "lat": -15.081950169548186,
        "lon": 91.75678031019498,
        "alt_km": 707.1187377296092,
        "timestamp": "2025-12-05T19:30:25.961942+00:00",
        "meta_object_name": "COSMOS 2251 DEB",
        "meta_object_id": "1993-036YC",
        "meta_epoch": "2025-12-03T08:28:16.036032",
        "meta_mean_motion": 14.58771685,
        "meta_eccentricity": 0.0018745,
        "meta_inclination": 74.0388,
        "meta_ra_of_asc_node": 100.8621,
        "meta_arg_of_pericenter": 234.1512,
        "meta_mean_anomaly": 157.2088,
        "meta_ephemeris_type": 0,
        "meta_classification_type": "U",
        "meta_norad_cat_id": 34682,
        "meta_element_set_no": 999,
        "meta_rev_at_epoch": 88549,
        "meta_bstar": 0.0013546,
        "meta_mean_motion_dot": 6.321e-05,
        "meta_mean_motion_ddot": 0,
        "tle_line1": "1 34682U 93036YC  25337.35296338  .00006321  00000+0  13546-2 0  9995",
        "tle_line2": "2 34682  74.0388 100.8621 0018745 234.1512 157.2088 14.58771685885493"
      },
      "geometry": {
        "type": "Point",
        "coordinates": [
          91.75678031019498,
          -15.081950169548186
        ]
      }
    },
    {
      "type": "Feature",
      "properties": {
        "norad_id": 34683,
        "name": "COSMOS 2251 DEB",
        "group": "cosmos-2251-debris",
        "lat": -1.588376103100897,
        "lon": 105.13036498750564,
        "alt_km": 692.0771239162141,
        "timestamp": "2025-12-05T19:30:25.961952+00:00",
        "meta_object_name": "COSMOS 2251 DEB",
        "meta_object_id": "1993-036YD",
        "meta_epoch": "2025-12-03T18:51:40.823424",
        "meta_mean_motion": 14.64268609,
        "meta_eccentricity": 0.0018837,
        "meta_inclination": 74.0284,
        "meta_ra_of_asc_node": 109.4798,
        "meta_arg_of_pericenter": 224.3122,
        "meta_mean_anomaly": 253.6547,
        "meta_ephemeris_type": 0,
        "meta_classification_type": "U",
        "meta_norad_cat_id": 34683,
        "meta_element_set_no": 999,
        "meta_rev_at_epoch": 88217,
        "meta_bstar": 0.0021599236,
        "meta_mean_motion_dot": 0.00011406,
        "meta_mean_motion_ddot": 0,
        "tle_line1": "1 34683U 93036YD  25337.78588916  .00011406  00000+0  21599-2 0  9996",
        "tle_line2": "2 34683  74.0284 109.4798 0018837 224.3122 253.6547 14.64268609882176"
      },
      "geometry": {
        "type": "Point",
        "coordinates": [
          105.13036498750564,
          -1.588376103100897
        ]
      }
    },
    {
      "type": "Feature",
      "properties": {
        "norad_id": 34685,
        "name": "COSMOS 2251 DEB",
        "group": "cosmos-2251-debris",
        "lat": -35.964932864029066,
        "lon": 149.9579021987679,
        "alt_km": 701.8864814972012,
        "timestamp": "2025-12-05T19:30:25.961962+00:00",
        "meta_object_name": "COSMOS 2251 DEB",
        "meta_object_id": "1993-036YF",
        "meta_epoch": "2025-12-04T20:54:38.270592",
        "meta_mean_motion": 14.57396715,
        "meta_eccentricity": 0.00143981,
        "meta_inclination": 74.0283,
        "meta_ra_of_asc_node": 163.7414,
        "meta_arg_of_pericenter": 267.7469,
        "meta_mean_anomaly": 156.724,
        "meta_ephemeris_type": 0,
        "meta_classification_type": "U",
        "meta_norad_cat_id": 34685,
        "meta_element_set_no": 999,
        "meta_rev_at_epoch": 88417,
        "meta_bstar": 0.0022091217,
        "meta_mean_motion_dot": 0.00010018,
        "meta_mean_motion_ddot": 0,
        "tle_line1": "1 34685U 93036YF  25338.87127628  .00010018  00000+0  22091-2 0  9994",
        "tle_line2": "2 34685  74.0283 163.7414 0014398 267.7469 156.7240 14.57396715884175"
      },
      "geometry": {
        "type": "Point",
        "coordinates": [
          149.9579021987679,
          -35.964932864029066
        ]
      }
    },
    {
      "type": "Feature",
      "properties": {
        "norad_id": 34689,
        "name": "COSMOS 2251 DEB",
        "group": "cosmos-2251-debris",
        "lat": 46.91573261957141,
        "lon": -106.79981103600728,
        "alt_km": 910.7491199547158,
        "timestamp": "2025-12-05T19:30:25.961973+00:00",
        "meta_object_name": "COSMOS 2251 DEB",
        "meta_object_id": "1993-036YK",
        "meta_epoch": "2025-12-01T04:52:05.077056",
        "meta_mean_motion": 14.04150485,
        "meta_eccentricity": 0.0229843,
        "meta_inclination": 74.0888,
        "meta_ra_of_asc_node": 243.4543,
        "meta_arg_of_pericenter": 314.8144,
        "meta_mean_anomaly": 197.2792,
        "meta_ephemeris_type": 0,
        "meta_classification_type": "U",
        "meta_norad_cat_id": 34689,
        "meta_element_set_no": 999,
        "meta_rev_at_epoch": 84179,
        "meta_bstar": 0.0056499,
        "meta_mean_motion_dot": 0.00011323,
        "meta_mean_motion_ddot": 0,
        "tle_line1": "1 34689U 93036YK  25335.20283654  .00011323  00000+0  56499-2 0  9993",
        "tle_line2": "2 34689  74.0888 243.4543 0229843 314.8144 197.2792 14.04150485841793"
      },
      "geometry": {
        "type": "Point",
        "coordinates": [
          -106.79981103600728,
          46.91573261957141
        ]
      }
    },
    {
      "type": "Feature",
      "properties": {
        "norad_id": 34721,
        "name": "COSMOS 2251 DEB",
        "group": "cosmos-2251-debris",
        "lat": -73.03401401483409,
        "lon": -130.77457643885285,
        "alt_km": 753.3005205560266,
        "timestamp": "2025-12-05T19:30:25.961983+00:00",
        "meta_object_name": "COSMOS 2251 DEB",
        "meta_object_id": "1993-036YP",
        "meta_epoch": "2025-12-03T18:59:35.690784",
        "meta_mean_motion": 13.96776355,
        "meta_eccentricity": 0.02239774,
        "meta_inclination": 73.9228,
        "meta_ra_of_asc_node": 341.7745,
        "meta_arg_of_pericenter": 282.3054,
        "meta_mean_anomaly": 262.1948,
        "meta_ephemeris_type": 0,
        "meta_classification_type": "U",
        "meta_norad_cat_id": 34721,
        "meta_element_set_no": 999,
        "meta_rev_at_epoch": 85024,
        "meta_bstar": 0.002612765,
        "meta_mean_motion_dot": 4.461e-05,
        "meta_mean_motion_ddot": 0,
        "tle_line1": "1 34721U 93036YP  25337.79138531  .00004461  00000+0  26128-2 0  9990",
        "tle_line2": "2 34721  73.9228 341.7745 0223977 282.3054 262.1948 13.96776355850248"
      },
      "geometry": {
        "type": "Point",
        "coordinates": [
          -130.77457643885285,
          -73.03401401483409
        ]
      }
    }
  ]
}